0 DELTA 1 DEB
1 07156U 73086DV  13282.78496852 -.00000092  00000-0 -50881-3 0   975
2 07156 102.0843 006.5682 0137357 121.1668 355.1483 12.14486504770319
0 DELTA 1 DEB
1 07156U 73086DV  13287.46890171  .00000061  00000-0  10324-2 0   990
2 07156 102.0844 010.9971 0137270 112.9113 314.0010 12.14485271770889
0 DELTA 1 DEB
1 07156U 73086DV  13289.86797293 -.00000035  00000-0  60819-4 0  1008
2 07156 102.0839 013.2656 0137213 108.6830 003.0845 12.14486382771172
0 DELTA 1 DEB
1 07156U 73086DV  13292.16505544 -.00000028  00000-0  13561-3 0  1015
2 07156 102.0835 015.4376 0137158 104.6288 326.2738 12.14486508771454
0 DELTA 1 DEB
1 07156U 73086DV  13294.22148685  .00000049  00000-0  90756-3 0  1027
2 07156 102.0832 017.3818 0137141 101.0050 317.3011 12.14485969771706
